[
    {
        "Altitude(m)": 617710.6328420105,
        "Argument of Periapsis(deg)": 0.0,
        "Eccentricity": 0.0,
        "Inclination(deg)": 60.0,
        "Latitude(deg)": -41.10264168195222,
        "Longitude(deg)": 64.96670833713762,
        "Mean Anomaly(deg)": -49.09089999999997,
        "RAAN(deg)": 195.00000000000003,
        "Satellite Name": "Test1 877",
        "Satellite Number": 877,
        "Semi-Major Axis(m)": 6980739.136638005,
        "Time(s)": 0
    },
    {
        "Altitude(m)": 617517.9310628194,
        "Argument of Periapsis(deg)": 0.00010418945913296404,
        "Eccentricity": 0.0,
        "Inclination(deg)": 60.0,
        "Latitude(deg)": -40.63684785142842,
        "Longitude(deg)": 65.46350052860824,
        "Mean Anomaly(deg)": -48.470793854538115,
        "RAAN(deg)": 194.99957995086024,
        "Satellite Name": "Test1 877",
        "Satellite Number": 877,
        "Semi-Major Axis(m)": 6980739.136638005,
        "Time(s)": 10
    }
]